NORAD_CAT_ID,OBJECT_NAME,OBJECT_TYPE,EPOCH,MEAN_MOTION,ECCENTRICITY,INCLINATION,RA_OF_ASC_NODE,ARG_OF_PERICENTER,MEAN_ANOMALY,BSTAR,MEAN_MOTION_DOT,MEAN_MOTION_DDOT,TLE_LINE0,TLE_LINE1,TLE_LINE2,SEMIMAJOR_AXIS,PERIOD,APOGEE,PERIGEE,DECAYED
53267.0,STARLINK-4060,PAYLOAD,2022-10-02 22:00:00,15.09256902,0.0001359,53.2174,62.519,53.2636,261.892,-0.035733,-0.00540004,0.0,0 STARLINK-4060,1 53267U 22086AB  22275.91667824 -.00540004  00000-0 -35733-1 0  9999,2 53267  53.2174  62.5190 0001359  53.2636 261.8920 15.09256902  1304,6916.606,95.411,539.411,537.531,0.0
53267.0,STARLINK-4060,PAYLOAD,2022-10-03 06:00:00,15.0886705,0.000143,53.2176,61.0216,71.1274,255.8713,-0.0031252,-0.00049719,0.0,0 STARLINK-4060,1 53267U 22086AB  22276.25001157 -.00049719  00000-0 -31252-2 0  9998,2 53267  53.2176  61.0216 0001430  71.1274 255.8713 15.08867050 11660,6917.7980000000025,95.436,540.6519999999998,538.673,0.0
53267.0,STARLINK-4060,PAYLOAD,2022-10-03 14:00:01,15.08903014,0.0001409,53.2176,59.5172,72.4863,266.1226,-0.0040111,-0.0006367,0.0,0 STARLINK-4060,1 53267U 22086AB  22276.58334491 -.00063670  00000-0 -40111-2 0  9990,2 53267  53.2176  59.5172 0001409  72.4863 266.1226 15.08903014  1302,6917.688,95.434,540.5269999999998,538.578,0.0
53267.0,STARLINK-4060,PAYLOAD,2022-10-03 22:00:00,15.08878765,0.0001421,53.2172,58.0213,64.3134,285.9384,-0.0008135,-0.00013225,0.0,0 STARLINK-4060,1 53267U 22086AB  22276.91667824 -.00013225  00000-0 -81350-3 0  9998,2 53267  53.2172  58.0213 0001421  64.3134 285.9384 15.08878765 11762,6917.762,95.435,540.61,538.644,0.0
53267.0,STARLINK-4060,PAYLOAD,2022-10-04 06:00:00,15.08824802,0.0001476,53.2173,56.5231,74.2569,287.6497,-0.0014206,-0.00022816,0.0,0 STARLINK-4060,1 53267U 22086AB  22277.25001157 -.00022816  00000-0 -14206-2 0  9998,2 53267  53.2173  56.5231 0001476  74.2569 287.6497 15.08824802 11811,6917.927,95.439,540.813,538.771,0.0
53267.0,STARLINK-4060,PAYLOAD,2022-10-04 14:00:01,15.08794818,0.0001608,53.2175,55.0279,70.437,303.0321,-0.0007553999999999,-0.00012275,0.0,0 STARLINK-4060,1 53267U 22086AB  22277.58334491 -.00012275  00000-0 -75540-3 0  9991,2 53267  53.2175  55.0279 0001608  70.4370 303.0321 15.08794818  1309,6918.018,95.44,540.996,538.771,0.0
53267.0,STARLINK-4060,PAYLOAD,2022-10-04 22:00:00,15.08810134,0.0001618,53.2174,53.5321,63.9329,321.0611,0.0023388,0.000371,0.0,0 STARLINK-4060,1 53267U 22086AB  22277.91667824  .00037100  00000-0  23388-2 0  9991,2 53267  53.2174  53.5321 0001618  63.9329 321.0611 15.08810134  1303,6917.972,95.439,540.956,538.717,0.0
53267.0,STARLINK-4060,PAYLOAD,2022-10-05 06:00:00,15.08812186,0.0001528,53.2177,52.034,72.5877,323.9879,0.0033883,0.00054009,0.0,0 STARLINK-4060,1 53267U 22086AB  22278.25001157  .00054009  00000-0  33883-2 0  9998,2 53267  53.2177  52.0340 0001528  72.5877 323.9879 15.08812186 11964,6917.965,95.439,540.887,538.773,0.0
53267.0,STARLINK-4060,PAYLOAD,2022-10-05 14:00:01,15.0885204,0.0001574,53.2179,50.5389,66.5312,341.6931,-0.0029387,-0.00046769,0.0,0 STARLINK-4060,1 53267U 22086AB  22278.58335648 -.00046769  00000-0 -29387-2 0  9999,2 53267  53.2179  50.5389 0001574  66.5312 341.6931 15.08852040  1306,6917.844,95.437,540.797,538.62,0.0
53267.0,STARLINK-4060,PAYLOAD,2022-10-05 22:00:00,15.08822234,0.0001518,53.2177,49.0442,58.5292,1.2206,-0.00031376,-5.276e-05,0.0,0 STARLINK-4060,1 53267U 22086AB  22278.91667824 -.00005276  00000-0 -31376-3 0  9990,2 53267  53.2177  49.0442 0001518  58.5292   1.2206 15.08822234 12064,6917.935,95.439,540.85,538.75,0.0
53267.0,STARLINK-4060,PAYLOAD,2022-10-06 06:00:00,15.08808051,0.0001355,53.2183,47.5447,66.6335,4.7196,0.0042986,0.00068731,0.0,0 STARLINK-4060,1 53267U 22086AB  22279.25001157  .00068731  00000-0  42986-2 0  9990,2 53267  53.2183  47.5447 0001355  66.6335   4.7196 15.08808051 12119,6917.978,95.44,540.78,538.906,0.0
53267.0,STARLINK-4060,PAYLOAD,2022-10-06 14:00:01,15.08873601,0.000148,53.2185,46.0498,59.826,23.1104,-0.0039313,-0.0006237,0.0,0 STARLINK-4060,1 53267U 22086AB  22279.58334491 -.00062370  00000-0 -39313-2 0  9991,2 53267  53.2185  46.0498 0001480  59.8260  23.1104 15.08873601  1307,6917.778,95.435,540.6669999999998,538.619,0.0
53267.0,STARLINK-4060,PAYLOAD,2022-10-06 22:42:55,15.08844828,0.0001486,53.2186,44.4195,55.3774,201.0854,-0.0014089999999999,-0.00022645,0.0,0 STARLINK-4060,1 53267U 22086AB  22279.94646991 -.00022645  00000-0 -14090-2 0  9998,2 53267  53.2186  44.4195 0001486  55.3774 201.0854 15.08844828  1309,6917.866,95.437,540.759,538.703,0.0
53267.0,STARLINK-4060,PAYLOAD,2022-10-07 00:00:00,15.08841323,0.0001462,53.2186,44.1788,57.132,130.3188,-0.0010255999999999,-0.00016574,0.0,0 STARLINK-4060,1 53267U 22086AB  22280.00001157 -.00016574  00000-0 -10256-2 0  9990,2 53267  53.2186  44.1788 0001462  57.1320 130.3188 15.08841323 12229,6917.876,95.437,540.753,538.73,0.0
53267.0,STARLINK-4060,PAYLOAD,2022-10-07 14:00:01,15.08863508,0.0001508,53.219,41.5607,57.7469,60.0138,-0.0023395,-0.00037352,0.0,0 STARLINK-4060,1 53267U 22086AB  22280.58334491 -.00037352  00000-0 -23395-2 0  9998,2 53267  53.2190  41.5607 0001508  57.7469  60.0138 15.08863508  1306,6917.809,95.436,540.717,538.63,0.0
53267.0,STARLINK-4060,PAYLOAD,2022-10-07 22:00:00,15.08859972,0.0001595999999999,53.2189,40.0643,56.0475,73.3184,-0.0043952,-0.000696,0.0,0 STARLINK-4060,1 53267U 22086AB  22280.91667824 -.00069600  00000-0 -43952-2 0  9996,2 53267  53.2189  40.0643 0001596  56.0475  73.3184 15.08859972  1302,6917.819,95.436,540.788,538.58,0.0
53267.0,STARLINK-4060,PAYLOAD,2022-10-08 14:00:01,15.0884769,0.0001648,53.2193,37.072,59.5659,92.9543,-0.0015809,-0.00025365,0.0,0 STARLINK-4060,1 53267U 22086AB  22281.58334491 -.00025365  00000-0 -15809-2 0  9991,2 53267  53.2193  37.0720 0001648  59.5659  92.9543 15.08847690  1309,6917.857,95.437,540.862,538.582,0.0
53267.0,STARLINK-4060,PAYLOAD,2022-10-08 22:00:00,15.08848596,0.0001533,53.2191,35.5755,54.9403,109.177,-0.0024921999999999,-0.00039742,0.0,0 STARLINK-4060,1 53267U 22086AB  22281.91667824 -.00039742  00000-0 -24922-2 0  9997,2 53267  53.2191  35.5755 0001533  54.9403 109.1770 15.08848596  1306,6917.854,95.437,540.78,538.659,0.0
53267.0,STARLINK-4060,PAYLOAD,2022-10-09 06:00:00,15.08807102,0.0001354,53.2192,34.0781,61.8098,113.8965,0.0039044,0.00062344,0.0,0 STARLINK-4060,1 53267U 22086AB  22282.25001157  .00062344  00000-0  39044-2 0  9999,2 53267  53.2192  34.0781 0001354  61.8098 113.8965 15.08807102 12564,6917.981,95.44,540.783,538.909,0.0
53267.0,STARLINK-4060,PAYLOAD,2022-10-09 14:00:01,15.08857456,0.0001561,53.2192,32.5835,56.1737,131.1146,-0.00071354,-0.00011631,0.0,0 STARLINK-4060,1 53267U 22086AB  22282.58334491 -.00011631  00000-0 -71354-3 0  9991,2 53267  53.2192  32.5835 0001561  56.1737 131.1146 15.08857456  1305,6917.8269999999975,95.436,540.7719999999998,538.612,0.0
53267.0,STARLINK-4060,PAYLOAD,2022-10-09 22:00:00,15.08874275,0.0001651,53.2189,31.0868,56.122,142.7745,-0.0050619,-0.00080029,0.0,0 STARLINK-4060,1 53267U 22086AB  22282.91667824 -.00080029  00000-0 -50619-2 0  9994,2 53267  53.2189  31.0868 0001651  56.1220 142.7745 15.08874275  1309,6917.776,95.435,540.783,538.499,0.0
53267.0,STARLINK-4060,PAYLOAD,2022-10-10 14:00:01,15.08822842,0.0001626999999999,53.2183,28.0991,61.6807,160.3825,0.00025341,3.745e-05,0.0,0 STARLINK-4060,1 53267U 22086AB  22283.58334491  .00003745  00000-0  25341-3 0  9992,2 53267  53.2183  28.0991 0001627  61.6807 160.3825 15.08822842 12761,6917.933000000001,95.439,540.923,538.672,0.0
53267.0,STARLINK-4060,PAYLOAD,2022-10-10 22:00:01,15.08915673,0.000169,53.218,26.6024,54.105,179.6123,-0.011597,-0.00180638,0.0,0 STARLINK-4060,1 53267U 22086AB  22283.91668981 -.00180638  00000-0 -11597-1 0  9998,2 53267  53.2180  26.6024 0001690  54.1050 179.6123 15.08915673  1303,6917.649,95.433,540.683,538.345,0.0
53267.0,STARLINK-4060,PAYLOAD,2022-10-11 06:00:00,15.08809619,0.0001440999999999,53.2184,25.1018,60.2648,184.9951,0.0024844999999999,0.00039441,0.0,0 STARLINK-4060,1 53267U 22086AB  22284.25001157  .00039441  00000-0  24845-2 0  9996,2 53267  53.2184  25.1018 0001441  60.2648 184.9951 15.08809619 12862,6917.973000000001,95.439,540.835,538.841,0.0
53267.0,STARLINK-4060,PAYLOAD,2022-10-11 14:00:01,15.08821785,0.0001725,53.2178,23.6129,54.8427,201.9827,0.0014864,0.00023435,0.0,0 STARLINK-4060,1 53267U 22086AB  22284.58334491  .00023435  00000-0  14864-2 0  9998,2 53267  53.2178  23.6129 0001725  54.8427 201.9827 15.08821785  1307,6917.936,95.439,540.994,538.6080000000002,0.0
53267.0,STARLINK-4060,PAYLOAD,2022-10-11 22:00:00,15.08843526,0.0001489,53.2187,22.1096,49.4069,218.985,-0.0033773,-0.00053643,0.0,0 STARLINK-4060,1 53267U 22086AB  22284.91667824 -.00053643  00000-0 -33773-2 0  9990,2 53267  53.2187  22.1096 0001489  49.4069 218.9850 15.08843526 12979,6917.87,95.437,540.765,538.705,0.0
53267.0,STARLINK-4060,PAYLOAD,2022-10-12 06:00:00,15.08808758,0.0001508,53.2185,20.613000000000003,56.7011,223.2737,0.0035359,0.00056388,0.0,0 STARLINK-4060,1 53267U 22086AB  22285.25001157  .00056388  00000-0  35359-2 0  9998,2 53267  53.2185  20.6130 0001508  56.7011 223.2737 15.08808758 13027,6917.976,95.44,540.884,538.798,0.0
53267.0,STARLINK-4060,PAYLOAD,2022-10-12 14:00:01,15.08825482,0.0001639,53.2183,19.1215,53.396,238.1622,0.0041797,0.00066837,0.0,0 STARLINK-4060,1 53267U 22086AB  22285.58334491  .00066837  00000-0  41797-2 0  9997,2 53267  53.2183  19.1215 0001639  53.3960 238.1622 15.08825482  1302,6917.925,95.438,540.924,538.656,0.0
53267.0,STARLINK-4060,PAYLOAD,2022-10-12 22:00:00,15.08887692,0.0001392,53.2176,17.6267,59.5924,243.5687,-0.0049961,-0.00079032,0.0,0 STARLINK-4060,1 53267U 22086AB  22285.91667824 -.00079032  00000-0 -49961-2 0  9997,2 53267  53.2176  17.6267 0001392  59.5924 243.5687 15.08887692 13123,6917.735,95.435,540.563,538.637,0.0
